#aV2023  5 21  0  0  0.00000000     288 DD+AD WGS84 FIT  NGA
## 2263      0.00000000   300.00000000 60085 0.0000000000000
+   32     1  2  3  4  5  6  7  8  9 10 11 12 13 14 15 16 17
+         18 19 20 21 22 23 24 25 26 27 28 29 30 31 32  0  0
+          0  0  0  0  0  0  0  0  0  0  0  0  0  0  0  0  0
+          0  0  0  0  0  0  0  0  0  0  0  0  0  0  0  0  0
+          0  0  0  0  0  0  0  0  0  0  0  0  0  0  0  0  0
++         2  2  2  2  2  2  2  2  2  2  2  2  2  2  2  2  2
++         2  2  2  2  2  2  2  2  2  2  2  2  2  2  2  0  0
++         0  0  0  0  0  0  0  0  0  0  0  0  0  0  0  0  0
++         0  0  0  0  0  0  0  0  0  0  0  0  0  0  0  0  0
++         0  0  0  0  0  0  0  0  0  0  0  0  0  0  0  0  0
%c cc cc ccc ccc cccc cccc cccc cccc ccccc ccccc ccccc ccccc
%c cc cc ccc ccc cccc cccc cccc cccc ccccc ccccc ccccc ccccc
%f  0.0000000  0.000000000  0.00000000000  0.000000000000000
%f  0.0000000  0.000000000  0.00000000000  0.000000000000000
%i    0    0    0    0      0      0      0      0         0
%i    0    0    0    0      0      0      0      0         0
/*      NGA, ST. LOUIS,MO.                                  
/*   EPHEMERIS COMPUTED FROM 2 DAYS OF DATA                 
/*   EPOCHA v8 SMOOTHER                                     
/*   G2139 IERS2010 SATIGS SATAPC                           
*  2023  5 21 18 35  0.00000000
P  1  22147.202009  14618.903727   3051.016717    183.682481                    
V  1   2370.723069   3867.520969 -31849.100086     -0.027314                    
P  2   8066.820828  18685.474207 -16745.295063   -593.873169                    
V  2 -19582.658736 -10356.297237 -20114.860369      0.039275                    
P  3  12918.962865   9975.743147  20847.815781   -296.416104                    
V  3  -3817.117518  26427.248168 -10097.495741      0.117115                    
P  4  21776.249094   2760.757071  15046.519891     47.364778                    
V  4 -17034.180377   8713.112269  22962.050437      0.098691                    
P  5  -5923.458768 -23460.473712 -10989.855566   -128.067213                    
V  5   3313.746938 -13522.743486  27634.795745     -0.014528                    
P  6   6417.756527 -13366.369211  22088.385274    587.750520                    
V  6  22298.885575  16653.769401   3703.452568     -0.006868                    
P  7  21573.071768   2673.210847 -15126.157954    172.592829                    
V  7  14649.443435  13570.091227  22128.966307     -0.094548                    
P  8  12236.978007  10699.193946 -21144.105118   -123.531283                    
V  8 -23939.772007  11642.898032  -7603.834311     -0.019122                    
P  9  24967.659413  -6434.585749   6394.943791   -153.789008                    
V  9  -6291.240310   5985.924034  30206.729439      0.084862                    
P 10 -11057.576476  20132.397017 -12883.753017    -37.866974                    
V 10   -138.088662 -16864.596707 -26179.586221     -0.016239                    
P 11  -7842.423526 -20263.060279  15310.885178   -205.269226                    
V 11  16138.568558  10932.575388  22707.330489     -0.141202                    
P 12 -11210.976678 -13621.934299  19600.420074   -378.830341                    
V 12   5879.890009 -24798.658894 -13596.863222     -0.046784                    
P 13  -3613.031863 -14676.129315 -22014.029940    523.145743                    
V 13  26557.008365  -7161.082442    620.579575      0.053130                    
P 14  13363.455439 -17398.049498 -14854.015902     64.546147                    
V 14   -422.845527  19120.312515 -22906.075662      0.127074                    
P 15 -14001.720004  -9655.768813 -20909.510208     41.618986                    
V 15  21453.487678 -13945.061407  -7841.664618      0.034620                    
P 16    864.327365  24976.010434  -8589.659271   -499.000113                    
V 16  -4860.199232   9829.675722  29567.889293      0.034103                    
P 17  21013.329220 -13960.602844   8904.874797    715.626311                    
V 17  10719.415358  -1696.528685 -29269.307953      0.013585                    
P 18 -19532.415671    383.506880 -18066.743780   -275.705725                    
V 18 -17261.493497 -15022.234526  18192.893603     -0.156530                    
P 19  14732.449696 -15484.097064  15343.128185    319.962218                    
V 19  19683.464504  -4000.962125 -22899.596094      0.051119                    
P 20  -2307.664294 -26527.186835  -1349.646323    432.338216                    
V 20   2943.054417  -1898.665906  31302.191431     -0.021058                    
P 21  20445.850253  16773.696422  -4974.028184    153.686750                    
V 21  -6929.988309  -1847.562434 -30398.095668     -0.002443                    
P 22 -10978.106434  16762.198693  17805.250759    485.119612                    
V 22 -21160.010837   5399.230060 -18762.605011      0.063007                    
P 23 -14649.392805   8631.823908 -20358.432710     26.105355                    
V 23   1317.089003 -25849.722379 -12052.751990      0.032040                    
P 24 -21944.859690 -15279.580407  -1987.553454   -196.972402                    
V 24   3491.905785  -1692.842477 -30743.123265     -0.137211                    
P 25 -15230.403587   -596.458642  21431.385283    444.421629                    
V 25   2688.963872 -27866.357366   1379.141971      0.026470                    
P 26  -4650.134023  25537.129526   4575.785435    240.486198                    
V 26  -3572.163434  -6218.749099  30643.720188     -0.005530                    
P 27     25.478220  16033.257742 -21354.640795     32.707860                    
V 27 -24702.177225   9878.305706   7879.475983     -0.079662                    
P 28  -8105.155008  12860.472415  21757.148128     79.410279                    
V 28 -22783.616050 -15717.172017    797.039303      0.028342                    
P 29 -24951.275068   2175.138256   8923.136819   -600.231905                    
V 29  10077.669773  -5640.363478  29283.221317     -0.013381                    
P 30  14745.963039  -7853.954150 -20581.274167   -515.875870                    
V 30  20539.850610  16665.371291   8045.188460      0.022086                    
P 31   2335.620506  18518.309630  18557.295668   -216.567746                    
V 31 -20095.053871 -13412.881152  16198.206955     -0.007782                    
P 32 -18331.027039  16090.679141  10451.030898   -481.983460                    
V 32 -13023.012189   2873.737543 -27938.895055     -0.090820                    
EOF
